[{"OBJECT_NAME":"NUVIEW ALPHA","OBJECT_ID":"2024-252B","EPOCH":"2026-03-15T02:12:39.085920","MEAN_MOTION":1.00267374,"ECCENTRICITY":0.00022911,"INCLINATION":0.0633,"RA_OF_ASC_NODE":36.5097,"ARG_OF_PERICENTER":318.0009,"MEAN_ANOMALY":128.2254,"EPHEMERIS_TYPE":0,"CLASSIFICATION_TYPE":"U","NORAD_CAT_ID":62455,"ELEMENT_SET_NO":999,"REV_AT_EPOCH":288,"BSTAR":0,"MEAN_MOTION_DOT":-2.15e-6,"MEAN_MOTION_DDOT":0},{"OBJECT_NAME":"AGILA","OBJECT_ID":"2024-252C","EPOCH":"2026-03-15T05:46:38.617536","MEAN_MOTION":1.00276914,"ECCENTRICITY":0.00013492,"INCLINATION":0.0252,"RA_OF_ASC_NODE":151.521,"ARG_OF_PERICENTER":208.0358,"MEAN_ANOMALY":52.0891,"EPHEMERIS_TYPE":0,"CLASSIFICATION_TYPE":"U","NORAD_CAT_ID":62456,"ELEMENT_SET_NO":999,"REV_AT_EPOCH":421,"BSTAR":0,"MEAN_MOTION_DOT":-1.82e-6,"MEAN_MOTION_DDOT":0},{"OBJECT_NAME":"NUVIEW BRAVO","OBJECT_ID":"2024-252D","EPOCH":"2026-03-15T02:12:37.903968","MEAN_MOTION":1.00271408,"ECCENTRICITY":4.146e-5,"INCLINATION":0.0677,"RA_OF_ASC_NODE":158.115,"ARG_OF_PERICENTER":225.4043,"MEAN_ANOMALY":99.2176,"EPHEMERIS_TYPE":0,"CLASSIFICATION_TYPE":"U","NORAD_CAT_ID":62457,"ELEMENT_SET_NO":999,"REV_AT_EPOCH":285,"BSTAR":0,"MEAN_MOTION_DOT":-2.16e-6,"MEAN_MOTION_DDOT":0},{"OBJECT_NAME":"THURAYA-4","OBJECT_ID":"2025-001A","EPOCH":"2026-03-15T05:15:31.205088","MEAN_MOTION":1.00272229,"ECCENTRICITY":1.998e-5,"INCLINATION":0.0177,"RA_OF_ASC_NODE":105.8256,"ARG_OF_PERICENTER":338.4465,"MEAN_ANOMALY":211.7231,"EPHEMERIS_TYPE":0,"CLASSIFICATION_TYPE":"U","NORAD_CAT_ID":62483,"ELEMENT_SET_NO":999,"REV_AT_EPOCH":323,"BSTAR":0,"MEAN_MOTION_DOT":1.38e-6,"MEAN_MOTION_DDOT":0},{"OBJECT_NAME":"TJS-14","OBJECT_ID":"2025-017A","EPOCH":"2026-03-15T06:50:44.572704","MEAN_MOTION":1.00274765,"ECCENTRICITY":0.00021899,"INCLINATION":1.0036,"RA_OF_ASC_NODE":290.433,"ARG_OF_PERICENTER":63.0451,"MEAN_ANOMALY":300.4651,"EPHEMERIS_TYPE":0,"CLASSIFICATION_TYPE":"U","NORAD_CAT_ID":62804,"ELEMENT_SET_NO":999,"REV_AT_EPOCH":433,"BSTAR":0,"MEAN_MOTION_DOT":1.14e-6,"MEAN_MOTION_DDOT":0},{"OBJECT_NAME":"SPAINSAT NG I","OBJECT_ID":"2025-021A","EPOCH":"2026-03-12T18:59:41.905536","MEAN_MOTION":1.00273656,"ECCENTRICITY":2.409e-5,"INCLINATION":0.0234,"RA_OF_ASC_NODE":152.1801,"ARG_OF_PERICENTER":228.3192,"MEAN_ANOMALY":103.8412,"EPHEMERIS_TYPE":0,"CLASSIFICATION_TYPE":"U","NORAD_CAT_ID":62852,"ELEMENT_SET_NO":999,"REV_AT_EPOCH":302,"BSTAR":0,"MEAN_MOTION_DOT":0,"MEAN_MOTION_DDOT":0},{"OBJECT_NAME":"QZS-6 (MICHIBIKI-6)","OBJECT_ID":"2025-023A","EPOCH":"2026-03-15T02:03:12.148128","MEAN_MOTION":1.00274709,"ECCENTRICITY":0.00022045,"INCLINATION":0.0202,"RA_OF_ASC_NODE":100.9048,"ARG_OF_PERICENTER":261.7048,"MEAN_ANOMALY":291.3489,"EPHEMERIS_TYPE":0,"CLASSIFICATION_TYPE":"U","NORAD_CAT_ID":62876,"ELEMENT_SET_NO":999,"REV_AT_EPOCH":401,"BSTAR":0,"MEAN_MOTION_DOT":-2.34e-6,"MEAN_MOTION_DDOT":0},{"OBJECT_NAME":"ZHONGXING-10R","OBJECT_ID":"2025-036A","EPOCH":"2026-03-15T02:08:56.598144","MEAN_MOTION":1.00270544,"ECCENTRICITY":0.00011165,"INCLINATION":0.072,"RA_OF_ASC_NODE":258.2703,"ARG_OF_PERICENTER":288.3482,"MEAN_ANOMALY":128.8247,"EPHEMERIS_TYPE":0,"CLASSIFICATION_TYPE":"U","NORAD_CAT_ID":63075,"ELEMENT_SET_NO":999,"REV_AT_EPOCH":401,"BSTAR":0,"MEAN_MOTION_DOT":-3.53e-6,"MEAN_MOTION_DDOT":0},{"OBJECT_NAME":"TJS-15","OBJECT_ID":"2025-045A","EPOCH":"2026-03-14T19:30:15.431040","MEAN_MOTION":1.00272213,"ECCENTRICITY":0.0006819,"INCLINATION":0.2219,"RA_OF_ASC_NODE":86.8733,"ARG_OF_PERICENTER":271.9111,"MEAN_ANOMALY":200.6049,"EPHEMERIS_TYPE":0,"CLASSIFICATION_TYPE":"U","NORAD_CAT_ID":63157,"ELEMENT_SET_NO":999,"REV_AT_EPOCH":381,"BSTAR":0,"MEAN_MOTION_DOT":-2.66e-6,"MEAN_MOTION_DDOT":0},{"OBJECT_NAME":"TIANLIAN 2-04","OBJECT_ID":"2025-062A","EPOCH":"2026-03-14T18:31:18.673824","MEAN_MOTION":1.00271223,"ECCENTRICITY":0.00343436,"INCLINATION":4.6189,"RA_OF_ASC_NODE":275.7297,"ARG_OF_PERICENTER":10.0286,"MEAN_ANOMALY":244.4704,"EPHEMERIS_TYPE":0,"CLASSIFICATION_TYPE":"U","NORAD_CAT_ID":63361,"ELEMENT_SET_NO":999,"REV_AT_EPOCH":365,"BSTAR":0,"MEAN_MOTION_DOT":-1.41e-6,"MEAN_MOTION_DDOT":0},{"OBJECT_NAME":"TJS-16","OBJECT_ID":"2025-064A","EPOCH":"2026-03-14T19:29:52.230048","MEAN_MOTION":1.00272367,"ECCENTRICITY":0.0005066,"INCLINATION":0.853,"RA_OF_ASC_NODE":81.8846,"ARG_OF_PERICENTER":263.9411,"MEAN_ANOMALY":279.6536,"EPHEMERIS_TYPE":0,"CLASSIFICATION_TYPE":"U","NORAD_CAT_ID":63397,"ELEMENT_SET_NO":999,"REV_AT_EPOCH":344,"BSTAR":0,"MEAN_MOTION_DOT":-1.06e-6,"MEAN_MOTION_DDOT":0},{"OBJECT_NAME":"TJS-17","OBJECT_ID":"2025-073A","EPOCH":"2026-03-14T18:57:27.631296","MEAN_MOTION":1.0027253,"ECCENTRICITY":0.0004267,"INCLINATION":0.8184,"RA_OF_ASC_NODE":83.4398,"ARG_OF_PERICENTER":256.0552,"MEAN_ANOMALY":281.7631,"EPHEMERIS_TYPE":0,"CLASSIFICATION_TYPE":"U","NORAD_CAT_ID":63524,"ELEMENT_SET_NO":999,"REV_AT_EPOCH":334,"BSTAR":0,"MEAN_MOTION_DOT":-7.0e-7,"MEAN_MOTION_DDOT":0},{"OBJECT_NAME":"TIANLIAN 2-05","OBJECT_ID":"2025-084A","EPOCH":"2026-03-10T03:37:49.031616","MEAN_MOTION":1.00273947,"ECCENTRICITY":0.00032456,"INCLINATION":4.7029,"RA_OF_ASC_NODE":280.9096,"ARG_OF_PERICENTER":88.7631,"MEAN_ANOMALY":232.9951,"EPHEMERIS_TYPE":0,"CLASSIFICATION_TYPE":"U","NORAD_CAT_ID":63662,"ELEMENT_SET_NO":999,"REV_AT_EPOCH":338,"BSTAR":0,"MEAN_MOTION_DOT":1.24e-6,"MEAN_MOTION_DDOT":0},{"OBJECT_NAME":"TJS-19","OBJECT_ID":"2025-097A","EPOCH":"2026-03-14T18:51:49.930848","MEAN_MOTION":1.00272944,"ECCENTRICITY":0.000299,"INCLINATION":3.4487,"RA_OF_ASC_NODE":315.9405,"ARG_OF_PERICENTER":339.6746,"MEAN_ANOMALY":300.9898,"EPHEMERIS_TYPE":0,"CLASSIFICATION_TYPE":"U","NORAD_CAT_ID":63924,"ELEMENT_SET_NO":999,"REV_AT_EPOCH":319,"BSTAR":0,"MEAN_MOTION_DOT":-2.77e-6,"MEAN_MOTION_DDOT":0},{"OBJECT_NAME":"CHINASAT 3B","OBJECT_ID":"2025-106A","EPOCH":"2026-03-10T09:27:44.146944","MEAN_MOTION":1.00271116,"ECCENTRICITY":0.00018045,"INCLINATION":0.0093,"RA_OF_ASC_NODE":129.0859,"ARG_OF_PERICENTER":208.7822,"MEAN_ANOMALY":139.4034,"EPHEMERIS_TYPE":0,"CLASSIFICATION_TYPE":"U","NORAD_CAT_ID":64062,"ELEMENT_SET_NO":999,"REV_AT_EPOCH":307,"BSTAR":0,"MEAN_MOTION_DOT":-4.4e-7,"MEAN_MOTION_DDOT":0},{"OBJECT_NAME":"SXM-10","OBJECT_ID":"2025-122A","EPOCH":"2026-03-15T06:12:25.746048","MEAN_MOTION":1.00274878,"ECCENTRICITY":0.00026223,"INCLINATION":0.0239,"RA_OF_ASC_NODE":60.6523,"ARG_OF_PERICENTER":308.3238,"MEAN_ANOMALY":140.8254,"EPHEMERIS_TYPE":0,"CLASSIFICATION_TYPE":"U","NORAD_CAT_ID":64290,"ELEMENT_SET_NO":999,"REV_AT_EPOCH":274,"BSTAR":0,"MEAN_MOTION_DOT":-1.8e-7,"MEAN_MOTION_DDOT":0},{"OBJECT_NAME":"CHINASAT 9C","OBJECT_ID":"2025-132A","EPOCH":"2026-03-14T02:06:08.305632","MEAN_MOTION":1.00269088,"ECCENTRICITY":0.00022392,"INCLINATION":0.0346,"RA_OF_ASC_NODE":251.8833,"ARG_OF_PERICENTER":92.7164,"MEAN_ANOMALY":310.7949,"EPHEMERIS_TYPE":0,"CLASSIFICATION_TYPE":"U","NORAD_CAT_ID":64470,"ELEMENT_SET_NO":999,"REV_AT_EPOCH":319,"BSTAR":0,"MEAN_MOTION_DOT":-2.47e-6,"MEAN_MOTION_DDOT":0},{"OBJECT_NAME":"MTG-S1","OBJECT_ID":"2025-143A","EPOCH":"2026-03-15T05:01:47.521056","MEAN_MOTION":1.00271214,"ECCENTRICITY":0.00022587,"INCLINATION":0.6429,"RA_OF_ASC_NODE":328.1559,"ARG_OF_PERICENTER":351.2261,"MEAN_ANOMALY":285.3657,"EPHEMERIS_TYPE":0,"CLASSIFICATION_TYPE":"U","NORAD_CAT_ID":64723,"ELEMENT_SET_NO":999,"REV_AT_EPOCH":247,"BSTAR":0,"MEAN_MOTION_DOT":-3.3e-7,"MEAN_MOTION_DDOT":0},{"OBJECT_NAME":"DROR 1","OBJECT_ID":"2025-148A","EPOCH":"2026-03-15T05:01:40.032768","MEAN_MOTION":1.0027207,"ECCENTRICITY":0.00035603,"INCLINATION":0.0218,"RA_OF_ASC_NODE":260.7531,"ARG_OF_PERICENTER":93.4901,"MEAN_ANOMALY":249.972,"EPHEMERIS_TYPE":0,"CLASSIFICATION_TYPE":"U","NORAD_CAT_ID":64784,"ELEMENT_SET_NO":999,"REV_AT_EPOCH":235,"BSTAR":0,"MEAN_MOTION_DOT":-3.5e-7,"MEAN_MOTION_DDOT":0},{"OBJECT_NAME":"SHIYAN-29","OBJECT_ID":"2025-196A","EPOCH":"2026-03-14T22:28:45.293376","MEAN_MOTION":1.00285794,"ECCENTRICITY":0.0010269,"INCLINATION":28.7221,"RA_OF_ASC_NODE":19.7219,"ARG_OF_PERICENTER":179.8738,"MEAN_ANOMALY":45.0288,"EPHEMERIS_TYPE":0,"CLASSIFICATION_TYPE":"U","NORAD_CAT_ID":65486,"ELEMENT_SET_NO":999,"REV_AT_EPOCH":193,"BSTAR":0,"MEAN_MOTION_DOT":-2.61e-6,"MEAN_MOTION_DDOT":0},{"OBJECT_NAME":"NUSANTARA LIMA (NUSANTARA 5)","OBJECT_ID":"2025-205A","EPOCH":"2026-03-14T00:29:17.592864","MEAN_MOTION":1.00270456,"ECCENTRICITY":7.014e-5,"INCLINATION":0.0575,"RA_OF_ASC_NODE":74.8775,"ARG_OF_PERICENTER":358.9132,"MEAN_ANOMALY":218.0351,"EPHEMERIS_TYPE":0,"CLASSIFICATION_TYPE":"U","NORAD_CAT_ID":65588,"ELEMENT_SET_NO":999,"REV_AT_EPOCH":176,"BSTAR":0,"MEAN_MOTION_DOT":-3.58e-6,"MEAN_MOTION_DDOT":0},{"OBJECT_NAME":"TJS-20","OBJECT_ID":"2025-238A","EPOCH":"2026-03-15T05:20:15.749664","MEAN_MOTION":1.00272848,"ECCENTRICITY":0.00080615,"INCLINATION":5.6802,"RA_OF_ASC_NODE":299.8932,"ARG_OF_PERICENTER":96.654,"MEAN_ANOMALY":278.7177,"EPHEMERIS_TYPE":0,"CLASSIFICATION_TYPE":"U","NORAD_CAT_ID":66142,"ELEMENT_SET_NO":999,"REV_AT_EPOCH":139,"BSTAR":0,"MEAN_MOTION_DOT":2.0e-7,"MEAN_MOTION_DDOT":0},{"OBJECT_NAME":"CMS-03 (GSAT-7R)","OBJECT_ID":"2025-249B","EPOCH":"2026-03-15T03:49:21.806688","MEAN_MOTION":1.00273629,"ECCENTRICITY":0.00030794,"INCLINATION":0.0375,"RA_OF_ASC_NODE":264.1065,"ARG_OF_PERICENTER":88.103,"MEAN_ANOMALY":311.8422,"EPHEMERIS_TYPE":0,"CLASSIFICATION_TYPE":"U","NORAD_CAT_ID":66311,"ELEMENT_SET_NO":999,"REV_AT_EPOCH":140,"BSTAR":0,"MEAN_MOTION_DOT":-7.8e-7,"MEAN_MOTION_DDOT":0},{"OBJECT_NAME":"VIASAT-3 F2","OBJECT_ID":"2025-261A","EPOCH":"2026-03-15T06:23:02.228928","MEAN_MOTION":1.00271018,"ECCENTRICITY":9.37e-5,"INCLINATION":0.0954,"RA_OF_ASC_NODE":271.3142,"ARG_OF_PERICENTER":125.2919,"MEAN_ANOMALY":153.0527,"EPHEMERIS_TYPE":0,"CLASSIFICATION_TYPE":"U","NORAD_CAT_ID":66454,"ELEMENT_SET_NO":999,"REV_AT_EPOCH":184,"BSTAR":0,"MEAN_MOTION_DOT":-2.34e-6,"MEAN_MOTION_DDOT":0}]
